OBJECT_NAME,OBJECT_ID,EPOCH,MEAN_MOTION,ECCENTRICITY,INCLINATION,RA_OF_ASC_NODE,ARG_OF_PERICENTER,MEAN_ANOMALY,EPHEMERIS_TYPE,CLASSIFICATION_TYPE,NORAD_CAT_ID,ELEMENT_SET_NO,REV_AT_EPOCH,BSTAR,MEAN_MOTION_DOT,MEAN_MOTION_DDOT
STARLINK-30713,2023-148T,2026-07-19T02:04:45.964704,15.34396489,.00016313,53.1606,132.2730,106.5356,253.5826,0,U,57952,999,15856,.48158449E-4,.1251E-4,0
STARLINK-30700,2023-148U,2026-07-19T14:00:01.999872,15.33542653,.00011065,53.1601,121.5110,81.9583,265.2360,0,U,57953,999,581,.92078223E-3,.30025E-3,0
STARLINK-30703,2023-148V,2026-07-19T04:29:47.921280,15.34392012,.00014755,53.1599,121.3987,94.2105,265.9066,0,U,57954,999,15872,.21971935E-4,.366E-5,0
STARLINK-30702,2023-148W,2026-07-19T02:28:52.591008,15.34368699,.00015458,53.1596,122.2921,66.1170,293.9994,0,U,57955,999,15870,.1273194E-3,.3923E-4,0
SKYKRAFT-3D,2023-084BZ,2026-07-19T09:32:02.082048,15.93065746,.00042516,97.6063,3.4845,204.3208,155.7866,0,U,57956,999,16028,.50003291E-3,.173383E-2,.13537119E-4
YAOGAN-33 04,2023-149A,2026-07-19T15:20:27.019104,14.58757945,.0000706,98.1974,149.6060,86.0683,274.0597,0,U,57958,999,14973,.47526421E-4,.176E-5,0
STARLINK-30396,2023-151A,2026-07-19T07:37:15.642624,15.27580691,.0000998,43.0019,312.9530,301.9356,58.1398,0,U,57964,999,15589,.23970805E-4,.398E-5,0
STARLINK-30524,2023-151B,2026-07-19T01:11:20.985216,15.27599925,.00015936,43.0059,314.3827,252.6923,107.3754,0,U,57965,999,15585,.15399948E-3,.398E-4,0
STARLINK-30521,2023-151C,2026-07-19T14:30:41.721984,15.27569883,.00011838,43.0001,310.8024,272.5073,87.5643,0,U,57966,999,15594,-.11463319E-4,-.577E-5,0
STARLINK-30528,2023-151D,2026-07-19T14:36:14.243616,15.27564400,.00016524,43.0026,310.8318,287.0554,73.0117,0,U,57967,999,15594,.29214317E-3,.7782E-4,0
STARLINK-30495,2023-151E,2026-07-19T00:49:10.953984,15.27575838,.00009729,43.0031,314.2586,266.2689,93.8052,0,U,57968,999,15585,-.4910454E-5,-.397E-5,0
STARLINK-30494,2023-151G,2026-07-19T07:20:50.121888,15.27575546,.00016039,43.0026,167.2525,271.8140,88.2528,0,U,57970,999,15758,.16515823E-4,.192E-5,0
STARLINK-30498,2023-151H,2026-07-19T14:51:02.413152,15.27573719,.00016559,43.0044,310.8937,266.7580,93.3083,0,U,57971,999,15594,-.14391196E-4,-.658E-5,0
STARLINK-30505,2023-151J,2026-07-19T09:07:43.012416,15.27580163,.00013339,43.0014,312.5391,246.1221,113.9491,0,U,57972,999,15590,.44746291E-3,.12071E-3,0
STARLINK-30502,2023-151K,2026-07-19T08:28:51.378816,15.27576720,.00011741,43.0046,312.3459,295.4848,64.5882,0,U,57973,999,15590,-.19773081E-4,-.806E-5,0
STARLINK-30489,2023-151L,2026-07-19T08:36:15.696000,15.27574653,.00015387,43.0052,312.3861,264.1685,95.8991,0,U,57974,999,15590,.16774329E-4,.199E-5,0
STARLINK-30503,2023-151M,2026-07-19T07:42:48.321504,15.27581476,.00012818,43.0032,312.9409,251.3208,108.7504,0,U,57975,999,15589,.13224477E-3,.3379E-4,0
STARLINK-30512,2023-151N,2026-07-19T14:41:46.705632,15.27569978,.00011818,43.0024,310.7961,276.2087,83.8630,0,U,57976,999,15594,-.422082E-5,-.378E-5,0
STARLINK-30509,2023-151P,2026-07-19T15:21:42.444576,15.27568437,.00016108,43.0023,325.4850,261.6222,98.4447,0,U,57977,999,15577,.15595824E-4,.167E-5,0
STARLINK-30511,2023-151Q,2026-07-19T15:30:57.840192,15.27572543,.00014278,43.0036,325.5375,264.6092,95.4597,0,U,57978,999,15577,.31864574E-4,.615E-5,0
STARLINK-30508,2023-151R,2026-07-19T09:19:52.579200,15.27574119,.00012305,43.0010,327.0359,271.4405,88.6305,0,U,57979,999,15573,-.3115928E-5,-.348E-5,0
STARLINK-30510,2023-151T,2026-07-19T10:21:52.036128,15.27574157,.00014467,43.0012,329.9025,265.6613,94.4073,0,U,57981,999,15570,-.19190637E-4,-.79E-5,0
STARLINK-30507,2023-151U,2026-07-19T08:53:15.269568,15.27578109,.00021051,43.0014,330.3063,275.2385,84.8226,0,U,57982,999,15568,-.33406686E-4,-.1182E-4,0
STARLINK-30515,2023-151V,2026-07-19T08:58:48.406368,15.27579999,.00014902,43.0032,330.3314,269.3267,90.7414,0,U,57983,999,15568,.80646911E-4,.1958E-4,0
STARLINK-30516,2023-151W,2026-07-19T09:04:21.790272,15.27579037,.00016029,43.0031,330.3669,270.3468,89.7200,0,U,57984,999,15569,.436595E-5,-.142E-5,0
STARLINK-30519,2023-151X,2026-07-19T09:27:16.604352,15.27577172,.00015437,43.0057,327.0751,269.7339,90.3336,0,U,57985,999,15567,.37384877E-4,.767E-5,0
YAOGAN-39 03A,2023-152A,2026-07-19T15:26:35.299968,15.22998296,.00026946,35.0013,68.4088,95.5732,264.5290,0,U,57986,999,15539,.19768658E-3,.4728E-4,0
YAOGAN-39 03B,2023-152C,2026-07-19T03:06:54.320832,15.16504207,.00260508,34.9896,97.2407,153.0947,207.1122,0,U,57988,999,15504,.13942455E-3,.2769E-4,0
YAOGAN-39 03C,2023-152E,2026-07-19T09:20:55.778208,15.16476822,.00165158,34.9899,95.5472,64.2499,295.9916,0,U,57990,999,15505,.13945339E-3,.2752E-4,0
STARLINK-30537,2023-153A,2026-07-19T13:11:40.055424,15.27578006,.00015292,43.0060,42.3009,256.8181,103.2501,0,U,57991,999,15496,.8997241E-5,-.15E-6,0
STARLINK-30534,2023-153B,2026-07-19T12:51:19.027296,15.27572884,.00013199,43.0034,42.1923,261.9477,98.1225,0,U,57992,999,15496,.12614456E-4,.85E-6,0
STARLINK-30536,2023-153C,2026-07-19T13:17:13.029792,15.27576002,.00016351,43.0052,42.3285,251.1988,108.8686,0,U,57993,999,15506,.30854868E-4,.587E-5,0
STARLINK-30538,2023-153D,2026-07-18T23:20:54.264192,15.27583878,.00013746,43.0043,45.7023,271.3910,88.6784,0,U,57994,999,15487,.20824855E-4,.311E-5,0
STARLINK-30517,2023-153E,2026-07-18T23:41:15.858240,15.27572635,.00014315,43.0015,45.8064,263.1768,96.8920,0,U,57995,999,15497,.26512952E-4,.467E-5,0
STARLINK-30523,2023-153G,2026-07-19T13:22:46.049952,15.27575831,.00016687,43.0062,42.3562,268.0566,92.0094,0,U,57997,999,15506,.27657583E-4,.499E-5,0
STARLINK-30531,2023-153H,2026-07-19T13:07:57.908928,15.27576743,.00014153,43.0056,42.2794,271.0829,88.9861,0,U,57998,999,15506,.13160127E-4,.1E-5,0
STARLINK-30552,2023-153J,2026-07-19T14:05:19.465440,15.27568977,.00016414,43.0022,42.5753,275.1241,84.9423,0,U,57999,999,15506,.71413511E-4,.1703E-4,0
STARLINK-30545,2023-153K,2026-07-19T14:10:39.993888,15.27579306,.0000782,43.0010,41.7454,269.3080,90.7682,0,U,58000,999,15507,.27637521E-4,.499E-5,0
STARLINK-30535,2023-153L,2026-07-19T14:16:12.893952,15.27581391,.00014134,43.0039,41.7726,274.6559,85.4131,0,U,58001,999,15507,.49218287E-4,.1092E-4,0
STARLINK-30540,2023-153M,2026-07-19T06:40:14.004768,15.27575263,.00015368,43.0040,43.6824,265.6177,94.4499,0,U,58002,999,15492,.15548922E-4,.166E-5,0
STARLINK-30539,2023-153P,2026-07-19T12:53:09.488832,15.27578603,.00014436,43.0054,42.2024,264.7598,95.3089,0,U,58004,999,15505,.1673384E-4,.198E-5,0
STARLINK-30530,2023-153Q,2026-07-18T15:06:04.173408,15.27579529,.000152,43.0062,47.4203,259.1150,100.9531,0,U,58005,999,15492,-.12412E-4,-.604E-5,0
STARLINK-30526,2023-153R,2026-07-19T12:49:15.652416,15.31832851,.00073014,43.0050,15.2902,279.0013,81.0014,0,U,58006,999,15537,.44077095E-3,.13592E-3,0
STARLINK-30527,2023-153S,2026-07-19T06:33:30.952224,15.27573681,.00014163,43.0023,175.2662,269.0743,90.9946,0,U,58007,999,15758,.12982787E-4,.95E-6,0
STARLINK-30522,2023-153T,2026-07-19T06:03:26.324064,15.27574455,.00013283,43.0032,44.3481,271.6565,88.4135,0,U,58008,999,15501,-.13227962E-4,-.626E-5,0
STARLINK-30486,2023-153U,2026-07-19T14:32:52.008000,15.27575350,.00015732,43.0041,41.8494,258.4398,101.6277,0,U,58009,999,15497,.4310016E-5,-.144E-5,0
STARLINK-30520,2023-153V,2026-07-19T13:13:30.657792,15.27579438,.00014367,43.0061,42.2864,262.1606,97.9083,0,U,58010,999,15496,.3415819E-4,.678E-5,0
STARLINK-30497,2023-153W,2026-07-19T14:19:54.994656,15.27573409,.0001519,43.0044,41.7800,266.3663,93.7015,0,U,58011,999,15507,.5842986E-5,-.101E-5,0
STARLINK-30525,2023-153X,2026-07-19T13:02:25.040832,15.27575714,.00012427,43.0054,42.2305,268.0964,91.9745,0,U,58012,999,15506,.95991654E-4,.238E-4,0
THEOS-2 (T2V),2023-155A,2026-07-19T14:17:47.853600,14.81643435,.00014356,97.8863,271.0878,98.7926,261.3450,0,U,58016,999,15022,.48069154E-4,.326E-5,0
FORMOSAT-7R (TRITON),2023-155B,2026-07-19T04:19:45.422112,14.91200596,.00013147,97.8349,281.3503,49.0039,311.1293,0,U,58017,999,15099,.85910646E-4,.797E-5,0
ANSER FOLLOWER 2,2023-155C,2026-07-19T14:39:57.860640,15.50627430,.00024186,97.5523,291.2173,186.4975,173.6246,0,U,58018,999,15397,.2228137E-3,.12671E-3,0
ANSER FOLLOWER 1,2023-155D,2026-07-19T14:27:42.340896,15.50986112,.0002901,97.5512,291.8504,196.7917,163.3239,0,U,58019,999,15397,.82935321E-3,.48256E-3,0
NESS,2023-155E,2026-07-19T05:38:42.957888,15.31104429,.00070992,97.5902,286.7493,93.8826,266.3226,0,U,58020,999,15339,.28881893E-3,.8605E-4,0
CSC-2,2023-155F,2026-07-19T03:36:28.585440,15.22325651,.00064135,97.5411,276.9092,121.7064,238.4798,0,U,58021,999,15304,.22325809E-3,.5077E-4,0
CSC-1,2023-155G,2026-07-19T15:12:15.102432,15.10975184,.00093622,97.5354,269.6222,124.7035,235.5078,0,U,58022,999,15263,.77641484E-4,.1233E-4,0
PRETTY,2023-155H,2026-07-19T05:23:54.936960,15.24223991,.00001698,97.5681,282.1241,136.7436,223.3814,0,U,58023,999,15323,.11529862E-3,.2737E-4,0
MACSAT (FINCH 1),2023-155J,2026-07-19T11:02:16.706112,15.20810056,.00013695,97.5772,282.6259,357.5236,2.5992,0,U,58024,999,15323,.97075176E-4,.2069E-4,0
PVCC,2023-155K,2026-07-19T14:33:55.792800,15.16299354,.0004681,97.5688,277.0653,41.0775,319.0809,0,U,58025,999,15289,.15445184E-3,.2924E-4,0
STARLINK-30514,2023-156A,2026-07-19T14:00:01.999872,15.33565646,.00014069,53.1588,185.4957,88.5003,248.4046,0,U,58028,999,570,-.87505481E-3,-.29056E-3,0
STARLINK-30518,2023-156B,2026-07-19T08:08:59.670528,15.30192189,.00012943,53.1589,186.7768,88.6603,271.4546,0,U,58029,999,15647,.13103991E-4,.29E-6,0
STARLINK-30549,2023-156C,2026-07-19T08:46:56.368416,15.30193958,.00012853,53.1601,186.7566,74.5734,285.5409,0,U,58030,999,15642,.46556609E-4,.102E-4,0
STARLINK-30556,2023-156D,2026-07-19T08:56:51.908928,15.34380622,.0001297,53.1581,194.4939,88.2237,271.8914,0,U,58031,999,15635,.67654219E-4,.1909E-4,0
STARLINK-30561,2023-156E,2026-07-19T08:27:17.411904,15.34385469,.00015347,53.1614,186.6733,76.1188,283.9985,0,U,58032,999,15647,.14288706E-4,.106E-5,0
